NORAD_CAT_ID,OBJECT_NAME,OBJECT_TYPE,EPOCH,MEAN_MOTION,ECCENTRICITY,INCLINATION,RA_OF_ASC_NODE,ARG_OF_PERICENTER,MEAN_ANOMALY,BSTAR,MEAN_MOTION_DOT,MEAN_MOTION_DDOT,TLE_LINE0,TLE_LINE1,TLE_LINE2,SEMIMAJOR_AXIS,PERIOD,APOGEE,PERIGEE,DECAYED
55297.0,STARLINK-5284,PAYLOAD,2024-08-07 19:59:34,14.98329821,0.0002871,70.0002,43.8933,268.9814,91.1016,3.0577e-05,2.72e-06,0.0,0 STARLINK-5284,1 55297U 23010AE  24220.83303804  .00000272  00000-0  30577-4 0  9990,2 55297  70.0002  43.8933 0002871 268.9814  91.1016 14.98329821 86565,6950.193,96.107,574.054,570.063,0.0
55297.0,STARLINK-5284,PAYLOAD,2024-08-08 13:37:03,14.98325681,0.0002798,70.0006,42.0418,269.2491,90.8347,-2.8562e-05,-4.34e-06,0.0,0 STARLINK-5284,1 55297U 23010AE  24221.56740293 -.00000434  00000-0 -28562-4 0  9991,2 55297  70.0006  42.0418 0002798 269.2491  90.8347 14.98325681 86676,6950.206,96.107,574.016,570.127,0.0
55297.0,STARLINK-5284,PAYLOAD,2024-08-08 21:37:44,14.98319498,0.000287,70.0004,41.2002,266.6753,93.4077,-9.3429e-05,-1.207e-05,0.0,0 STARLINK-5284,1 55297U 23010AE  24221.90120997 -.00001207  00000-0 -93429-4 0  9995,2 55297  70.0004  41.2002 0002870 266.6753  93.4077 14.98319498 86417,6950.225,96.108,574.085,570.096,0.0
55297.0,STARLINK-5284,PAYLOAD,2024-08-09 13:39:05,14.98321763,0.0003041,69.9999,39.5152,269.7226,90.3584,-8.8144e-05,-1.144e-05,0.0,0 STARLINK-5284,1 55297U 23010AE  24222.56881209 -.00001144  00000-0 -88144-4 0  9996,2 55297  69.9999  39.5152 0003041 269.7226  90.3584 14.98321763 86825,6950.218,96.108,574.197,569.97,0.0
55297.0,STARLINK-5284,PAYLOAD,2024-08-09 20:03:37,14.98324826,0.0003018,70.0002,38.8423,271.0057,89.0756,-4.5276e-05,-6.33e-06,0.0,0 STARLINK-5284,1 55297U 23010AE  24222.83585040 -.00000633  00000-0 -45276-4 0  9991,2 55297  70.0002  38.8423 0003018 271.0057  89.0756 14.98324826 86557,6950.209,96.107,574.171,569.976,0.0
55297.0,STARLINK-5284,PAYLOAD,2024-08-09 21:39:45,14.98326389,0.0003014,70.0003,38.674,271.1283,88.9531,-2.7179e-05,-4.17e-06,0.0,0 STARLINK-5284,1 55297U 23010AE  24222.90260920 -.00000417  00000-0 -27179-4 0  9998,2 55297  70.0003  38.6740 0003014 271.1283  88.9531 14.98326389 86876,6950.204,96.107,574.164,569.974,0.0
55297.0,STARLINK-5284,PAYLOAD,2024-08-10 12:04:57,14.98331355,0.0003105,70.0001,37.1595,270.9562,89.1242,0.0002005,2.3e-05,0.0,0 STARLINK-5284,1 55297U 23010AE  24223.50343929  .00002300  00000-0  20050-3 0  9997,2 55297  70.0001  37.1595 0003105 270.9562  89.1242 14.98331355 86651,6950.189,96.107,574.212,569.896,0.0
55297.0,STARLINK-5284,PAYLOAD,2024-08-10 13:41:05,14.9833346,0.0003068,70.0002,36.9908,271.1199,88.9609,0.00022412,2.582e-05,0.0,0 STARLINK-5284,1 55297U 23010AE  24223.57019733  .00002582  00000-0  22412-3 0  9993,2 55297  70.0002  36.9908 0003068 271.1199  88.9609 14.98333460 86972,6950.182,96.107,574.18,569.915,0.0
55297.0,STARLINK-5284,PAYLOAD,2024-08-10 20:05:36,14.98341086,0.0003009,70.0004,36.3173,271.1258,88.9556,0.0002934,3.411e-05,0.0,0 STARLINK-5284,1 55297U 23010AE  24223.83722977  .00003411  00000-0  29340-3 0  9992,2 55297  70.0004  36.3173 0003009 271.1258  88.9556 14.98341086 86708,6950.159,96.106,574.115,569.932,0.0
55297.0,STARLINK-5284,PAYLOAD,2024-08-10 21:41:44,14.98343559,0.0003012,70.0004,36.149,271.1849,88.8965,0.00031475,3.666e-05,0.0,0 STARLINK-5284,1 55297U 23010AE  24223.90398720  .00003666  00000-0  31475-3 0  9999,2 55297  70.0004  36.1490 0003012 271.1849  88.8965 14.98343559 87024,6950.151,96.106,574.109,569.923,0.0
55297.0,STARLINK-5284,PAYLOAD,2024-08-11 18:31:30,14.98331862,0.000272,70.0036,33.9644,258.3159,101.7695,0.00010377,1.145e-05,0.0,0 STARLINK-5284,1 55297U 23010AE  24224.77187773  .00001145  00000-0  10377-3 0  9997,2 55297  70.0036  33.9644 0002720 258.3159 101.7695 14.98331862 86849,6950.187,96.107,573.943,570.162,0.0
55297.0,STARLINK-5284,PAYLOAD,2024-08-11 21:43:46,14.98336442,0.0002979,70.0006,33.6237,270.28,89.8017,0.00012132,1.355e-05,0.0,0 STARLINK-5284,1 55297U 23010AE  24224.90539389  .00001355  00000-0  12132-3 0  9990,2 55297  70.0006  33.6237 0002979 270.2800  89.8017 14.98336442 87173,6950.173,96.107,574.108,569.968,0.0
55297.0,STARLINK-5284,PAYLOAD,2024-08-12 04:08:17,14.98376521,0.000281,70.0036,32.9493,280.1108,79.9734,-0.00071757,-8.655e-05,0.0,0 STARLINK-5284,1 55297U 23010AE  24225.17242611 -.00008655  00000-0 -71757-3 0  9999,2 55297  70.0036  32.9493 0002810 280.1108  79.9734 14.98376521 86905,6950.049,96.104,573.867,569.961,0.0
55297.0,STARLINK-5284,PAYLOAD,2024-08-12 21:45:46,14.98348988,0.0002971,70.0005,31.0971,278.251,81.8312,-3.8158e-05,-5.48e-06,0.0,0 STARLINK-5284,1 55297U 23010AE  24225.90678286 -.00000548  00000-0 -38158-4 0  9993,2 55297  70.0005  31.0971 0002971 278.2510  81.8312 14.98348988 87322,6950.134,96.106,574.064,569.934,0.0
55297.0,STARLINK-5284,PAYLOAD,2024-08-13 04:10:16,14.9836812,0.0008504,70.0052,30.419,269.5761,90.4423,-0.00056863,-6.883e-05,0.0,0 STARLINK-5284,1 55297U 23010AE  24226.17379831 -.00006883  00000-0 -56863-3 0  9997,2 55297  70.0052  30.4190 0008504 269.5761  90.4423 14.98368120 87058,6950.075,96.105,577.85,566.03,0.0
55297.0,STARLINK-5284,PAYLOAD,2024-08-13 14:00:01,14.9833129,0.0002973,70.0024,29.3935,266.0545,142.2747,-0.00019839,-2.459e-05,0.0,0 STARLINK-5284,1 55297U 23010AE  24226.58334491 -.00002459  00000-0 -19839-3 0  9992,2 55297  70.0024  29.3935 0002973 266.0545 142.2747 14.98331290 87128,6950.189,96.107,574.12,569.988,0.0
55297.0,STARLINK-5284,PAYLOAD,2024-08-13 16:59:27,14.98281932,0.0003865,70.0032,29.0768,271.7881,88.2835,-0.00054134,-6.539e-05,0.0,0 STARLINK-5284,1 55297U 23010AE  24226.70796282 -.00006539  00000-0 -54134-3 0  9996,2 55297  70.0032  29.0768 0003865 271.7881  88.2835 14.98281932 87130,6950.342,96.11,574.893,569.52,0.0
55297.0,STARLINK-5284,PAYLOAD,2024-08-13 21:47:51,14.98291532,0.0002913,70.0029,28.5729,272.0232,88.0593,-0.00039749,-4.828e-05,0.0,0 STARLINK-5284,1 55297U 23010AE  24226.90823854 -.00004828  00000-0 -39749-3 0  9998,2 55297  70.0029  28.5729 0002913 272.0232  88.0593 14.98291532 87477,6950.312,96.109,574.201,570.152,0.0
55297.0,STARLINK-5284,PAYLOAD,2024-08-14 04:12:22,14.98314045,0.0003881,70.0029,27.899,270.8816,89.1898,-0.00014209,-1.787e-05,0.0,0 STARLINK-5284,1 55297U 23010AE  24227.17525963 -.00001787  00000-0 -14209-3 0  9993,2 55297  70.0029  27.8990 0003881 270.8816  89.1898 14.98314045 87204,6950.242,96.108,574.805,569.41,0.0
55297.0,STARLINK-5284,PAYLOAD,2024-08-14 12:13:00,14.98329557,0.0006648,69.9961,27.0548,265.5191,94.5209,6.5858e-05,6.93e-06,0.0,0 STARLINK-5284,1 55297U 23010AE  24227.50903261  .00000693  00000-0  65858-4 0  9991,2 55297  69.9961  27.0548 0006648 265.5191  94.5209 14.98329557 87253,6950.194,96.107,576.68,567.439,0.0
55297.0,STARLINK-5284,PAYLOAD,2024-08-14 13:49:08,14.98328606,0.0007645,69.9982,26.8863,264.1045,95.9243,7.6487e-05,8.19e-06,0.0,0 STARLINK-5284,1 55297U 23010AE  24227.57578946  .00000819  00000-0  76487-4 0  9996,2 55297  69.9982  26.8863 0007645 264.1045  95.9243 14.98328606 87576,6950.197,96.107,577.376,566.749,0.0
55297.0,STARLINK-5284,PAYLOAD,2024-08-14 22:00:00,14.98343292,0.0003018,70.0019,26.0316,275.287,122.8524,0.00264,0.0003156,0.0,0 STARLINK-5284,1 55297U 23010AE  24227.91667824  .00031560  00000-0  26400-2 0  9993,2 55297  70.0019  26.0316 0003018 275.2870 122.8524 14.98343292 87327,6950.152,96.106,574.114,569.919,0.0
55297.0,STARLINK-5284,PAYLOAD,2024-08-15 04:14:21,14.98330581,0.0002459,70.0006,25.376,273.7251,86.3627,0.00029175,3.39e-05,0.0,0 STARLINK-5284,1 55297U 23010AE  24228.17664298  .00003390  00000-0  29175-3 0  9997,2 55297  70.0006  25.3760 0002459 273.7251  86.3627 14.98330581 87664,6950.191,96.107,573.765,570.347,0.0
55297.0,STARLINK-5284,PAYLOAD,2024-08-15 17:03:25,14.98348528,0.0003573,70.0005,24.0296,268.7941,91.2809,0.0002023,2.323e-05,0.0,0 STARLINK-5284,1 55297U 23010AE  24228.71071605  .00002323  00000-0  20230-3 0  9999,2 55297  70.0005  24.0296 0003573 268.7941  91.2809 14.98348528 87433,6950.136,96.106,574.484,569.517,0.0
55297.0,STARLINK-5284,PAYLOAD,2024-08-16 04:16:23,14.98326125,0.0004122,70.0003,22.8535,273.4876,86.5812,0.00016701,1.9e-05,0.0,0 STARLINK-5284,1 55297U 23010AE  24229.17805145  .00001900  00000-0  16701-3 0  9992,2 55297  70.0003  22.8535 0004122 273.4876  86.5812 14.98326125 87502,6950.205,96.107,574.935,569.205,0.0
55297.0,STARLINK-5284,PAYLOAD,2024-08-16 10:40:57,14.98317277,0.0002437,70.0006,22.1783,274.2609,85.8272,-0.00022984,-2.833e-05,0.0,0 STARLINK-5284,1 55297U 23010AE  24229.44511416 -.00002833  00000-0 -22984-3 0  9995,2 55297  70.0006  22.1783 0002437 274.2609  85.8272 14.98317277 87547,6950.232,96.108,573.791,570.403,0.0
55297.0,STARLINK-5284,PAYLOAD,2024-08-17 09:06:48,14.98343418,0.0003618,70.0052,19.8226,270.2475,89.827,-8.1777e-05,-1.069e-05,0.0,0 STARLINK-5284,1 55297U 23010AE  24230.37972805 -.00001069  00000-0 -81777-4 0  9998,2 55297  70.0052  19.8226 0003618 270.2475  89.8270 14.98343418 87685,6950.151,96.106,574.531,569.502,0.0
55297.0,STARLINK-5284,PAYLOAD,2024-08-18 12:21:04,14.9834463,0.0002426,69.9938,16.949,223.8597,136.237,7.3997e-05,7.9e-06,0.0,0 STARLINK-5284,1 55297U 23010AE  24231.51463522  .00000790  00000-0  73997-4 0  9999,2 55297  69.9938  16.9490 0002426 223.8597 136.2370 14.98344630 87855,6950.148,96.106,573.699,570.327,0.0
55297.0,STARLINK-5284,PAYLOAD,2024-08-18 20:21:45,14.98335919,0.0003439,70.0011,16.1182,271.2012,88.8753,-5.3144e-05,-7.27e-06,0.0,0 STARLINK-5284,1 55297U 23010AE  24231.84844357 -.00000727  00000-0 -53144-4 0  9998,2 55297  70.0011  16.1182 0003439 271.2012  88.8753 14.98335919 87907,6950.175,96.107,574.43,569.649,0.0
55297.0,STARLINK-5284,PAYLOAD,2024-08-19 10:46:57,14.98341337,0.0003024,70.0009,14.6038,268.1962,91.8851,-6.987e-05,-9.27e-06,0.0,0 STARLINK-5284,1 55297U 23010AE  24232.44927796 -.00000927  00000-0 -69870-4 0  9999,2 55297  70.0009  14.6038 0003024 268.1962  91.8851 14.98341337 88305,6950.158,96.106,574.125,569.921,0.0
